{"type": "FeatureCollection", "features": [{"type": "Feature", "properties": {"name": "21 Leguas MTB", "distance_km": 103.36, "elevation_gain_m": 2629, "elevation_loss_m": 2628, "points_original": 31385, "points_simplified": 1812}, "geometry": {"type": "LineString", "coordinates": [[-8.155131954699755, 43.514777552336454], [-8.155613243579865, 43.514710161834955], [-8.156177597120404, 43.51485843770206], [-8.15685804001987, 43.51489883847535], [-8.157256348058581, 43.51469675078988], [-8.157882392406464, 43.514749724417925], [-8.157981969416142, 43.5148305259645], [-8.1580151617527, 43.5150461923331], [-8.15808154642582, 43.51631278172135], [-8.158347168937325, 43.516528364270926], [-8.159276554360986, 43.516528364270926], [-8.16013963893056, 43.51660924963653], [-8.161533800885081, 43.51658225990832], [-8.163425847887993, 43.516663145273924], [-8.16551704891026, 43.51663615554571], [-8.165882248431444, 43.516690051183105], [-8.170064650475979, 43.51671704091132], [-8.170695388689637, 43.51655535399914], [-8.171226466074586, 43.51623189635575], [-8.171989973634481, 43.51590852253139], [-8.17301893606782, 43.515126910060644], [-8.173749167472124, 43.51466875523329], [-8.174612252041698, 43.514237590134144], [-8.176139183342457, 43.51332128047943], [-8.176736645400524, 43.51307870820165], [-8.177135037258267, 43.51280923001468], [-8.178163999691606, 43.512324169278145], [-8.17896069958806, 43.511758223176], [-8.180027464404702, 43.5111797042191], [-8.180089322850108, 43.510922798886895], [-8.179757315665483, 43.510761111974716], [-8.17942539229989, 43.51049163378775], [-8.179060276597738, 43.510410748422146], [-8.17852919921279, 43.510060384869576], [-8.178097615018487, 43.50965612567961], [-8.177898460999131, 43.50906327366829], [-8.177798883989453, 43.50890158675611], [-8.177168229594827, 43.50830873474479], [-8.175342483446002, 43.507931381464005], [-8.175110137090087, 43.507931381464005], [-8.17494417540729, 43.508120058104396], [-8.174711829051375, 43.50825475528836], [-8.173704072833061, 43.50837713107467], [-8.173687476664782, 43.508511912077665], [-8.173870034515858, 43.508767895400524], [-8.173986207693815, 43.50890267640352], [-8.174301534891129, 43.50910476408899], [-8.174484092742205, 43.50932034663856], [-8.174567073583603, 43.51022316142917], [-8.174816016107798, 43.51103167980909], [-8.174782823771238, 43.51122027263045], [-8.174600265920162, 43.511408949270844], [-8.174434304237366, 43.51148983463645], [-8.173820246011019, 43.51158413104713], [-8.172940565273166, 43.511382043361664], [-8.172060968354344, 43.51139545440674], [-8.171961391344666, 43.51146284490824], [-8.171911519020796, 43.511691922321916], [-8.171778749674559, 43.51184011436999], [-8.171430230140686, 43.5118671040982], [-8.170168837532401, 43.5117323230952], [-8.170002875849605, 43.51154373027384], [-8.169903298839927, 43.51128766313195], [-8.169765919446945, 43.51121926680207], [-8.169257221743464, 43.511399645358324], [-8.168759252876043, 43.51172301918268], [-8.168493714183569, 43.51183081045747], [-8.168493714183569, 43.51218117401004], [-8.168626483529806, 43.51242374628782], [-8.168659675866365, 43.512720214203], [-8.168593291193247, 43.51288190111518], [-8.168360944837332, 43.51290880702436], [-8.168261367827654, 43.51277410984039], [-8.168062213808298, 43.51199258118868], [-8.168108817189932, 43.512197686359286], [-8.16733030602336, 43.51071501150727], [-8.167074406519532, 43.510169852524996], [-8.166865948587656, 43.509494103491306], [-8.166876593604684, 43.50912244990468], [-8.167248079553246, 43.508376544341445], [-8.167788377031684, 43.50787337869406], [-8.168478962033987, 43.507494097575545], [-8.1693313177675, 43.507320089265704], [-8.169933808967471, 43.50727449171245], [-8.171187406405807, 43.50708615034819], [-8.171934569254518, 43.50688247010112], [-8.172657256945968, 43.506564209237695], [-8.173513803631067, 43.50601854734123], [-8.174133226275444, 43.50546550936997], [-8.17458308301866, 43.50462078116834], [-8.174630356952548, 43.50434300489724], [-8.174581658095121, 43.50411116145551], [-8.174498341977596, 43.5038304515183], [-8.174290722236037, 43.50347916595638], [-8.173762746155262, 43.503018664196134], [-8.172898991033435, 43.50245271809399], [-8.172441255301237, 43.501900769770145], [-8.172382581979036, 43.50171930156648], [-8.172471849247813, 43.50134488195181], [-8.172307731583714, 43.50101270712912], [-8.172295242547989, 43.50080550648272], [-8.172322399914265, 43.50051390007138], [-8.172440081834793, 43.50023335777223], [-8.172822715714574, 43.499719463288784], [-8.17301114089787, 43.499638410285115], [-8.173303166404366, 43.49967570975423], [-8.173645148053765, 43.49957470782101], [-8.173884032294154, 43.49943162873387], [-8.174276892095804, 43.49909568205476], [-8.174689449369907, 43.498702235519886], [-8.174756085500121, 43.498292192816734], [-8.174859350547194, 43.49811231717467], [-8.175253802910447, 43.497737143188715], [-8.17580608651042, 43.497611498460174], [-8.176042372360826, 43.497216291725636], [-8.176317382603884, 43.496886463835835], [-8.177506858482957, 43.49566320888698], [-8.178100129589438, 43.49552331492305], [-8.179036220535636, 43.495109751820564], [-8.179835015907884, 43.4949058201164], [-8.180869845673442, 43.49469752982259], [-8.18131148815155, 43.49465670995414], [-8.181865364313126, 43.49450122565031], [-8.185135144740343, 43.4938507899642], [-8.186179110780358, 43.49357561208308], [-8.186576496809721, 43.493277970701456], [-8.186835832893848, 43.49314922466874], [-8.186957454308867, 43.49296951666474], [-8.18718871101737, 43.492794670164585], [-8.188635176047683, 43.49097370170057], [-8.188811279833317, 43.49085593596101], [-8.189349230378866, 43.490806901827455], [-8.190509369596839, 43.4908337239176], [-8.19198458455503, 43.49078318104148], [-8.192650023847818, 43.4906249307096], [-8.19313240237534, 43.490375485271215], [-8.193775797262788, 43.49027020856738], [-8.19435984827578, 43.489879528060555], [-8.195061916485429, 43.48913739435375], [-8.195683434605598, 43.48874654620886], [-8.196246363222599, 43.488190742209554], [-8.197104334831238, 43.48767114803195], [-8.197748651728034, 43.48752605728805], [-8.19801913574338, 43.48756067454815], [-8.198479637503624, 43.48775966092944], [-8.198668984696269, 43.487711967900395], [-8.199479766190052, 43.48688744008541], [-8.199524693191051, 43.48672558553517], [-8.199645476415753, 43.48664444871247], [-8.199633993208408, 43.486469350755215], [-8.199479095637798, 43.48636155948043], [-8.19925781339407, 43.48628972657025], [-8.198992274701595, 43.48605612292886], [-8.19850536994636, 43.48575068637729], [-8.197996420785785, 43.485139813274145], [-8.19788577966392, 43.48508591763675], [-8.197708753868937, 43.484888356179], [-8.197487471625209, 43.484798502177], [-8.197376746684313, 43.484690710902214], [-8.197177592664957, 43.48433137871325], [-8.197221849113703, 43.483828296884894], [-8.197443131357431, 43.48341506905854], [-8.197664497420192, 43.48323544487357], [-8.19835047237575, 43.48239096812904], [-8.198638139292598, 43.48221134394407], [-8.1988815497607, 43.48192384466529], [-8.199368454515934, 43.48154657520354], [-8.199766762554646, 43.48107945173979], [-8.199833147227764, 43.480971660465], [-8.199855275452137, 43.48077401518822], [-8.199965916574001, 43.48057636991143], [-8.199965916574001, 43.47954330034554], [-8.200386352837086, 43.47887861542404], [-8.201012397184968, 43.47837938927114], [-8.204200034961104, 43.47776457667351], [-8.205706430599093, 43.477778155356646], [-8.205983955413103, 43.477816209197044], [-8.20638058707118, 43.47796834073961], [-8.206655345857143, 43.478217953816056], [-8.206779481843114, 43.47851215861738], [-8.206715611740947, 43.47931556403637], [-8.20677344687283, 43.47958194091916], [-8.206751151010394, 43.480838891118765], [-8.206663811579347, 43.481164863333106], [-8.206867072731256, 43.48157582804561], [-8.207267308607697, 43.48194379359484], [-8.209647685289383, 43.483789237216115], [-8.210164261981845, 43.48423666320741], [-8.210313292220235, 43.484525671228766], [-8.210269622504711, 43.48473220132291], [-8.21062870323658, 43.48493965342641], [-8.211317947134376, 43.48495080135763], [-8.211560938507318, 43.48489757627249], [-8.212392842397094, 43.48452935926616], [-8.213136736303568, 43.484320901334286], [-8.213556334376335, 43.4842527564615], [-8.214106522500515, 43.48428108729422], [-8.214518576860428, 43.482317039743066], [-8.214565012603998, 43.48216180689633], [-8.214821917936206, 43.48174656741321], [-8.215517364442348, 43.48203205503523], [-8.21693692356348, 43.48222056403756], [-8.21834416128695, 43.482321901246905], [-8.218555804342031, 43.48223657347262], [-8.218714389950037, 43.48207580856979], [-8.21880985982716, 43.48173298873007], [-8.218859313055873, 43.48119881004095], [-8.218950927257538, 43.48111582919955], [-8.219427354633808, 43.48100870847702], [-8.220834340900183, 43.48083922639489], [-8.221039613708854, 43.48076177760959], [-8.221268188208342, 43.48045005463064], [-8.221528194844723, 43.47876084968448], [-8.221827847883105, 43.477588053792715], [-8.221929017454386, 43.47746944986284], [-8.222178965806961, 43.47735327668488], [-8.222747091203928, 43.477419409900904], [-8.224783474579453, 43.47815115004778], [-8.227254627272487, 43.479351941496134], [-8.227464174851775, 43.47935093566775], [-8.228578884154558, 43.478880962356925], [-8.228690782561898, 43.478877609595656], [-8.228777032345533, 43.47893251106143], [-8.230140432715416, 43.48067921586335], [-8.230153592303395, 43.48079128190875], [-8.230002215132117, 43.481002589687705], [-8.229258991777897, 43.48131841979921], [-8.229030333459377, 43.48154456354678], [-8.228945676237345, 43.48174857906997], [-8.22903142310679, 43.481907080858946], [-8.229149272665381, 43.48197430372238], [-8.22929092682898, 43.48200514912605], [-8.22975461371243, 43.48195661790669], [-8.231084486469626, 43.481489662081], [-8.231119187548757, 43.48153542727232], [-8.231857465580106, 43.48146510310471], [-8.232473116368055, 43.48121766932309], [-8.23287888430059, 43.48113267682493], [-8.233066136017442, 43.48119487054646], [-8.23364264331758, 43.481896268203855], [-8.233886556699872, 43.48197866231203], [-8.234725585207343, 43.48173541948199], [-8.236139360815287, 43.481202414259315], [-8.236748557537794, 43.480790024623275], [-8.236980317160487, 43.48043077625334], [-8.237246023491025, 43.47987614572048], [-8.237448949366808, 43.47915689460933], [-8.237578952684999, 43.47904499620199], [-8.23920856229961, 43.47841643728316], [-8.239694042131305, 43.47816623747349], [-8.240964990109205, 43.47769224084914], [-8.242036951705813, 43.47719695419073], [-8.242612704634666, 43.4771001432091], [-8.242776319384575, 43.47718798555434], [-8.243043031543493, 43.47744774073362], [-8.243324495851994, 43.477950152009726], [-8.243601098656654, 43.478040006011724], [-8.243933022022247, 43.4782555885613], [-8.245984740219207, 43.479225600955104], [-8.247653421627279, 43.480250239104016], [-8.248412650061978, 43.48208830109828], [-8.248625006614022, 43.48316706892651], [-8.248670415417239, 43.484036854428], [-8.248549182736804, 43.48473044044929], [-8.248837602977437, 43.48599643389286], [-8.247245382517576, 43.486453760415316], [-8.246581451967359, 43.48699280060828], [-8.245884412899613, 43.48746436648071], [-8.24555248953402, 43.48773384466767], [-8.245336739346385, 43.487989911809564], [-8.244805578142405, 43.48832678049803], [-8.24452344328165, 43.48856926895678], [-8.243643762543797, 43.48912180401385], [-8.243172029033303, 43.489290699362755], [-8.242972875013947, 43.48946588113904], [-8.242773720994592, 43.48984315060079], [-8.242657547816634, 43.49038219079375], [-8.242723932489753, 43.490759460255504], [-8.243046384304762, 43.49160125479102], [-8.243306977674365, 43.49173251539469], [-8.243814501911402, 43.4918649494648], [-8.243955736979842, 43.49196603521705], [-8.244379861280322, 43.49286717362702], [-8.244492094963789, 43.493003379553556], [-8.244920745491982, 43.493211502209306], [-8.245719624683261, 43.49343194626272], [-8.246499644592404, 43.493508556857705], [-8.246891666203737, 43.493500677868724], [-8.247440848499537, 43.49344217218459], [-8.248245008289814, 43.49324243143201], [-8.248715987429023, 43.493042942136526], [-8.249717624858022, 43.49244589917362], [-8.250613985583186, 43.49171055480838], [-8.251426024362445, 43.4912499692291], [-8.25152987614274, 43.491131365299225], [-8.251526858657598, 43.49060305394232], [-8.251564409583807, 43.490514792501926], [-8.252075538039207, 43.490280602127314], [-8.252363707870245, 43.489899476990104], [-8.252438390627503, 43.489869721233845], [-8.252584906294942, 43.489910708740354], [-8.252655314281583, 43.49019477143884], [-8.252843655645847, 43.490408677607775], [-8.253242215141654, 43.49056391045451], [-8.253538180142641, 43.49058763124049], [-8.254615003243089, 43.490520156919956], [-8.25629934668541, 43.49015680141747], [-8.257198808714747, 43.4897890035063], [-8.257943708449602, 43.489289777353406], [-8.259345581755042, 43.48770081996918], [-8.25968706049025, 43.48761825822294], [-8.259980008006096, 43.48773526959121], [-8.260194584727287, 43.48763711750507], [-8.2603251747787, 43.48741709254682], [-8.260315535590053, 43.487185752019286], [-8.25991865247488, 43.486517714336514], [-8.263224558904767, 43.47861433401704], [-8.262990787625313, 43.47796205431223], [-8.262806385755539, 43.477595346048474], [-8.262209426611662, 43.476761765778065], [-8.262288635596633, 43.47593958489597], [-8.262247983366251, 43.47512419335544], [-8.263036971911788, 43.47501698881388], [-8.263047197833657, 43.474770644679666], [-8.26282013207674, 43.47431902773678], [-8.262804625555873, 43.474111491814256], [-8.263005958870053, 43.47419950179756], [-8.263447433710098, 43.47470887005329], [-8.26362781226635, 43.47525511868298], [-8.263876754790545, 43.47471616230905], [-8.263888908550143, 43.47455162554979], [-8.263710793107748, 43.47396153956652], [-8.263710793107748, 43.473678566515446], [-8.263843562453985, 43.47334169782698], [-8.264042716473341, 43.47309920936823], [-8.264839416369796, 43.472506273537874], [-8.264922397211194, 43.47253326326609], [-8.26612327247858, 43.47207569517195], [-8.26649945229292, 43.47168040461838], [-8.266610093414783, 43.47137496806681], [-8.266875632107258, 43.47106953151524], [-8.267867276526715, 43.470498540813765], [-8.269205432816818, 43.47012923799346], [-8.270015826681515, 43.47033442905678], [-8.268677812965734, 43.4704848858766], [-8.267961585345745, 43.47094991210781], [-8.267886152328884, 43.472112475961154], [-8.268602316338246, 43.47192106573172], [-8.274485310539603, 43.47520130686462], [-8.274505594745278, 43.475329549983144], [-8.274432588368654, 43.47547941841185], [-8.273736890405416, 43.47604284994304], [-8.273315113037825, 43.4763162676245], [-8.27321469783783, 43.4765284974128], [-8.273663464933634, 43.47696863114834], [-8.274524789303541, 43.4775335714221], [-8.274980345740914, 43.47802969627082], [-8.275859439745545, 43.47833680920303], [-8.276478862389922, 43.477983847260475], [-8.276762338355184, 43.47792978398502], [-8.276956379413605, 43.47807805985212], [-8.277266090735793, 43.47846983000636], [-8.277462730184197, 43.47860720939934], [-8.277768921107054, 43.4786768630147], [-8.278289185836911, 43.47854266874492], [-8.279026206582785, 43.4786404017359], [-8.27961528673768, 43.478882890194654], [-8.280356330797076, 43.47900518216193], [-8.280812473967671, 43.479180447757244], [-8.281378671526909, 43.479301733896136], [-8.281471123918891, 43.47939527593553], [-8.281459724530578, 43.47955956123769], [-8.281503226608038, 43.479648577049375], [-8.281953250989318, 43.48007529973984], [-8.282385086640716, 43.48061224445701], [-8.282484328374267, 43.48086395300925], [-8.282475946471095, 43.481035865843296], [-8.282575272023678, 43.48127047531307], [-8.28283284790814, 43.481577755883336], [-8.283284213393927, 43.481974890455604], [-8.283523265272379, 43.48241871222854], [-8.28366743400693, 43.482565730810165], [-8.284381404519081, 43.482827078551054], [-8.284976352006197, 43.48293679766357], [-8.286112938076258, 43.48290318623185], [-8.28652591444552, 43.48306587897241], [-8.28728917054832, 43.48320560529828], [-8.288430450484157, 43.48358287476003], [-8.288706634193659, 43.48376207984984], [-8.288885671645403, 43.48380935378373], [-8.288922468200326, 43.483859645202756], [-8.288888521492481, 43.48389300517738], [-8.288869494572282, 43.483818573877215], [-8.289069905877113, 43.48382502794266], [-8.28941909596324, 43.483612295240164], [-8.289630906656384, 43.4832804556936], [-8.289747331291437, 43.483191691339016], [-8.290436239913106, 43.482788102701306], [-8.290976705029607, 43.48254603333771], [-8.291140235960484, 43.482427429407835], [-8.291416335850954, 43.482098607346416], [-8.292048498988152, 43.48176844418049], [-8.29230884090066, 43.48158177919686], [-8.292655516415834, 43.481721421703696], [-8.292905632406473, 43.48172745667398], [-8.293432770296931, 43.48189710639417], [-8.294077925384045, 43.48187858238816], [-8.294451925903559, 43.48209156654775], [-8.294547395780683, 43.4822531696409], [-8.294536666944623, 43.48235500976443], [-8.294474221765995, 43.482409827411175], [-8.294500121846795, 43.482489958405495], [-8.294918043538928, 43.482862366363406], [-8.295365301892161, 43.483086582273245], [-8.295946167781949, 43.4831802919507], [-8.296450255438685, 43.48316730000079], [-8.297027349472046, 43.48293671384454], [-8.297424148768187, 43.48265633918345], [-8.297855146229267, 43.4824587777257], [-8.298584707081318, 43.48220153711736], [-8.299865378066897, 43.48130274564028], [-8.300450183451176, 43.48112395964563], [-8.301051836460829, 43.48070972599089], [-8.30157721415162, 43.48009734414518], [-8.30244884826243, 43.479355461895466], [-8.302697287872434, 43.479092018678784], [-8.303048489615321, 43.47856546752155], [-8.303060475736856, 43.47845968790352], [-8.302845982834697, 43.47780765965581], [-8.303154185414314, 43.47734740935266], [-8.303569005802274, 43.47692328505218], [-8.30373496748507, 43.47631542943418], [-8.303635055199265, 43.47620260901749], [-8.303143624216318, 43.47608861513436], [-8.30303717404604, 43.476009238511324], [-8.302980260923505, 43.4756978508085], [-8.302823603153229, 43.47527867183089], [-8.302847743034363, 43.475218238309026], [-8.3037178684026, 43.474879609420896], [-8.304363610222936, 43.47476243041456], [-8.305023852735758, 43.47473376430571], [-8.305243961513042, 43.47467425279319], [-8.305517295375466, 43.47450024448335], [-8.305985340848565, 43.47434769384563], [-8.306794697418809, 43.47396799363196], [-8.30745535902679, 43.47378367558122], [-8.308681212365627, 43.47351101227105], [-8.309448659420013, 43.47359240055084], [-8.309573382139206, 43.473725924268365], [-8.309652423486114, 43.474347945302725], [-8.309616046026349, 43.47454760223627], [-8.309161495417356, 43.475476736202836], [-8.308749441057444, 43.476110408082604], [-8.30852497369051, 43.47631350159645], [-8.308446854352951, 43.47647183574736], [-8.308589849621058, 43.47669119015336], [-8.309157472103834, 43.477153703570366], [-8.30955594778061, 43.47798267379403], [-8.309479001909494, 43.478318620473146], [-8.309219582006335, 43.47856949083507], [-8.30911036580801, 43.478822791948915], [-8.309186724945903, 43.47901322878897], [-8.309589391574264, 43.479322185739875], [-8.30973967909813, 43.47961010411382], [-8.309740098193288, 43.479808922857046], [-8.309567095711827, 43.48006809130311], [-8.309528455138206, 43.480266658589244], [-8.311355752894912, 43.47993209660916], [-8.311979550446694, 43.479333621353334], [-8.312571612482344, 43.47913411251085], [-8.314220911893983, 43.47910348056163], [-8.31499898418835, 43.478667372948536], [-8.31602875353991, 43.47830571765962], [-8.317155767629629, 43.47813034161388], [-8.317969766029137, 43.477861911879074], [-8.31870990540304, 43.47751664083799], [-8.317980472705841, 43.478199394385484], [-8.316965535406496, 43.47865204324185], [-8.316214884380628, 43.4793041110419], [-8.316309988803482, 43.47958029798741], [-8.316711733830232, 43.47986415588704], [-8.317578676229658, 43.480117326851996], [-8.31807558462512, 43.48014035321785], [-8.318392774294978, 43.480025264156325], [-8.318667667578097, 43.479787450798284], [-8.319916147738695, 43.479776149615645], [-8.319982197135687, 43.479843540117145], [-8.319901647046208, 43.480330696329474], [-8.319754796102643, 43.480634624138474], [-8.319433266296983, 43.48103863187134], [-8.319194382056594, 43.481239126995206], [-8.318748632445931, 43.48148982971907], [-8.31834889948368, 43.48163852468133], [-8.31758757121861, 43.481778083369136], [-8.316835043951869, 43.48173483274877], [-8.31599811092019, 43.48193951882422], [-8.315639533102512, 43.4819804225117], [-8.315564515069127, 43.48207731731236], [-8.315593600273132, 43.4822288621217], [-8.315539872273803, 43.48235199227929], [-8.315742127597332, 43.48260847851634], [-8.315794430673122, 43.482812996953726], [-8.315875483676791, 43.48281073383987], [-8.315926780924201, 43.48253815434873], [-8.316478729248047, 43.48236163146794], [-8.317183228209615, 43.48258752375841], [-8.317516325041652, 43.48285490646958], [-8.31809626892209, 43.4830111451447], [-8.318665064871311, 43.48304484039545], [-8.319001849740744, 43.4829664696008], [-8.319198153913021, 43.48299530334771], [-8.320079762488604, 43.48289136774838], [-8.320303978398442, 43.48292053677142], [-8.320487374439836, 43.48310309462249], [-8.320657527074218, 43.483367040753365], [-8.320684097707272, 43.48371430300176], [-8.320763055235147, 43.483805917203426], [-8.321343334391713, 43.483917815610766], [-8.321564951911569, 43.48406852222979], [-8.322043139487505, 43.484276393428445], [-8.322704890742898, 43.484369181096554], [-8.323669983074069, 43.48502565175295], [-8.323786910623312, 43.485198989510536], [-8.323831921443343, 43.48541130311787], [-8.323754891753197, 43.48602745682001], [-8.323577949777246, 43.486453257501125], [-8.32337100058794, 43.48656876012683], [-8.322869846597314, 43.4867653157562], [-8.322366764768958, 43.48684527911246], [-8.322110949084163, 43.48682549782097], [-8.321610717102885, 43.48694611340761], [-8.321052566170692, 43.48757676780224], [-8.320827512070537, 43.48773267120123], [-8.32008931785822, 43.48804204724729], [-8.318938566371799, 43.48822619765997], [-8.31823599524796, 43.48843733780086], [-8.317854283377528, 43.48873380571604], [-8.316894387826324, 43.48921040073037], [-8.316617785021663, 43.48939899355173], [-8.316075643524528, 43.489920012652874], [-8.315657218918204, 43.49009779281914], [-8.314119223505259, 43.48987768404186], [-8.313570627942681, 43.48997650668025], [-8.312834780663252, 43.489985475316644], [-8.31100626848638, 43.48973846063018], [-8.307734308764338, 43.48969805985689], [-8.306666621938348, 43.48930276930332], [-8.306312570348382, 43.48906924948096], [-8.306212909519672, 43.488844614475965], [-8.306318102404475, 43.48826525732875], [-8.30629044212401, 43.48812150768936], [-8.305825665593147, 43.488485282287], [-8.305198112502694, 43.488867077976465], [-8.305076323449612, 43.48920847289264], [-8.305115131661296, 43.48967107012868], [-8.30503759905696, 43.48985077813268], [-8.303648717701435, 43.49087412469089], [-8.303123088553548, 43.491166066378355], [-8.30300691537559, 43.49131434224546], [-8.303033569827676, 43.49140780046582], [-8.303133146837354, 43.49151114933193], [-8.303420813754201, 43.49165037274361], [-8.30347060225904, 43.49210400134325], [-8.303619967773557, 43.49236451089382], [-8.304245173931122, 43.49274178035557], [-8.305163495242596, 43.49303372204304], [-8.307182863354683, 43.49346723407507], [-8.307478157803416, 43.493575444445014], [-8.308252645656466, 43.49400669336319], [-8.309200135990977, 43.49420710466802], [-8.311125375330448, 43.494894336909056], [-8.311496023088694, 43.495267163962126], [-8.311750330030918, 43.495964873582125], [-8.311872035264969, 43.49614449776709], [-8.3122537471354, 43.49644993431866], [-8.312799744307995, 43.49670147523284], [-8.31322018057108, 43.49702937528491], [-8.313303161412477, 43.4971731249243], [-8.313292097300291, 43.49763572216034], [-8.313336353749037, 43.49771208129823], [-8.313913783058524, 43.49777544848621], [-8.314124085009098, 43.497856333851814], [-8.314251322299242, 43.497977619990706], [-8.314284514635801, 43.49813478067517], [-8.314140681177378, 43.49856594577432], [-8.313567431875128, 43.49910865273796], [-8.313768709823307, 43.49947726627107], [-8.316048318520188, 43.49830308929086], [-8.316143620759249, 43.49844994023442], [-8.316382421180606, 43.49917430430651], [-8.31680428236723, 43.501104237511754], [-8.317013494670391, 43.50183832459152], [-8.317332426086068, 43.502288768067956], [-8.318247310817242, 43.503174064680934], [-8.318290561437607, 43.50323684513569], [-8.318258877843618, 43.503324603661895], [-8.317266667067344, 43.50428890544322], [-8.314847170782798, 43.50587528513543], [-8.314177347577754, 43.50689647784881], [-8.313673306256533, 43.51032944396138], [-8.313474152237177, 43.510342855006456], [-8.313192017376423, 43.510221568867564], [-8.312826817855239, 43.510194662958384], [-8.31232893280685, 43.51026205345988], [-8.312129778787494, 43.51045064628124], [-8.3117978554219, 43.51065281778574], [-8.311416059732437, 43.51107048802078], [-8.31131648272276, 43.51128607057035], [-8.31076880916953, 43.51148824207485], [-8.3103041164577, 43.511528642848134], [-8.309490820392966, 43.511879006400704], [-8.308694204315543, 43.51208109408617], [-8.308611223474145, 43.51226977072656], [-8.3082958124578, 43.51247185841203], [-8.308212831616402, 43.51278182119131], [-8.308096658438444, 43.5128896124661], [-8.307980485260487, 43.51310519501567], [-8.307615369558334, 43.51297041401267], [-8.30734983086586, 43.512930013239384], [-8.307134080678225, 43.51280872710049], [-8.306951439008117, 43.51279531605542], [-8.306254399940372, 43.51249884814024], [-8.305424507707357, 43.51243145763874], [-8.304578103125095, 43.51245844736695], [-8.304544910788536, 43.51240455172956], [-8.30396220088005, 43.51225753314793], [-8.3035141043365, 43.51255400106311], [-8.303447719663382, 43.51267520338297], [-8.303431123495102, 43.51286388002336], [-8.30298294313252, 43.513268139213324], [-8.302667615935206, 43.51372629404068], [-8.302617827430367, 43.51414396427572], [-8.30200376920402, 43.51508717983961], [-8.30187963321805, 43.51519698277116], [-8.301763460040092, 43.51522397249937], [-8.301248978823423, 43.51587072014809], [-8.300734413787723, 43.51608630269766], [-8.300601644441485, 43.516261484473944], [-8.300518663600087, 43.51655795238912], [-8.300535259768367, 43.517056507989764], [-8.300485471263528, 43.51720478385687], [-8.299987586215138, 43.51805361919105], [-8.29988800920546, 43.51841747760773], [-8.299805028364062, 43.51853876374662], [-8.299672259017825, 43.51860615424812], [-8.299439828842878, 43.51905081421137], [-8.299406636506319, 43.51941458880901], [-8.299307059496641, 43.5195223800838], [-8.299224078655243, 43.51984575390816], [-8.299008328467607, 43.52029041387141], [-8.298922497779131, 43.52079240605235], [-8.298811856657267, 43.52100798860192], [-8.29833609983325, 43.52163679897785], [-8.297970984131098, 43.52240935899317], [-8.297627912834287, 43.52333463728428], [-8.297041514888406, 43.52408029139042], [-8.296698527410626, 43.52444104850292], [-8.296244814991951, 43.52474648505449], [-8.295337557792664, 43.52552801370621], [-8.294795332476497, 43.52587812580168], [-8.2939765881747, 43.52662369608879], [-8.293080311268568, 43.52701898664236], [-8.292565830051899, 43.52729357779026], [-8.292233906686306, 43.52754503488541], [-8.292167522013187, 43.52761695161462], [-8.291946239769459, 43.528218772262335], [-8.291868790984154, 43.52893743664026], [-8.2919130474329, 43.52918000891805], [-8.290463564917445, 43.52958426810801], [-8.290120577439666, 43.5296022053808], [-8.289788570255041, 43.52958426810801], [-8.288792800158262, 43.529269862920046], [-8.287552865222096, 43.5289718862623], [-8.286877954378724, 43.52902578189969], [-8.286811569705606, 43.529295260086656], [-8.286490626633167, 43.52951092645526], [-8.28632466495037, 43.529690550640225], [-8.286280408501625, 43.5299510601908], [-8.286424241960049, 43.5300319455564], [-8.287099236622453, 43.53005885146558], [-8.287276262417436, 43.53013973683119], [-8.286645524203777, 43.53107398375869], [-8.286557011306286, 43.53114581666887], [-8.286402113735676, 43.531442284584045], [-8.28635785728693, 43.53149618022144], [-8.286269344389439, 43.531487211585045], [-8.285837844014168, 43.53136139921844], [-8.284764541313052, 43.53161294013262], [-8.284178143367171, 43.53191837668419], [-8.28410279005766, 43.532234877347946], [-8.284147046506405, 43.532378543168306], [-8.284644931554794, 43.53304331190884], [-8.283903636038303, 43.53329485282302], [-8.28319544903934, 43.53334874846041], [-8.283184384927154, 43.533914694562554], [-8.28304055146873, 43.53422909975052], [-8.282365640625358, 43.53466026484966], [-8.28223287127912, 43.534922283142805], [-8.28223287127912, 43.535012137144804], [-8.28335034660995, 43.53568587452173], [-8.283737674355507, 43.535829624161124], [-8.283870443701744, 43.53593741543591], [-8.283981084823608, 43.53593741543591], [-8.284324072301388, 43.536090133711696], [-8.28375980257988, 43.5367236379534], [-8.283859379589558, 43.536993116140366], [-8.284058533608913, 43.537127897143364], [-8.284268751740456, 43.537199730053544], [-8.284324072301388, 43.53728958405554], [-8.284733444452286, 43.53740634396672], [-8.284877361729741, 43.53730752132833], [-8.285342054441571, 43.53735244832933], [-8.285353118553758, 43.5375680308789], [-8.285264605656266, 43.53805309161544], [-8.285319926217198, 43.5385921318084], [-8.28522034920752, 43.53884367272258], [-8.28465599566698, 43.5393466707319], [-8.28434620052576, 43.53968806564808], [-8.284091725945473, 43.540030885487795], [-8.283936828374863, 43.540336322039366], [-8.285364182665944, 43.540776539593935], [-8.286570254713297, 43.54121667332947], [-8.288092911243439, 43.54155924171209], [-8.28814823180437, 43.54164909571409], [-8.28814294090688, 43.54369115076787], [-8.289840379605181, 43.54375943829584], [-8.290521516665734, 43.543470845090695], [-8.29183130934399, 43.542506263466464], [-8.29313059515843, 43.5417695170633], [-8.294460475444794, 43.54120812378824], [-8.294626101851463, 43.541337037459016], [-8.294664407148957, 43.54159587062895], [-8.295107055455446, 43.542251670733094], [-8.296724846586585, 43.54386979714036], [-8.296615798026323, 43.543926794081926], [-8.29662200063467, 43.543982366099954], [-8.297310322523117, 43.544593155384064], [-8.297876017168164, 43.54521752335131], [-8.298380188643932, 43.54558624327183], [-8.298894753679633, 43.54615453630686], [-8.299636133015156, 43.54665694758296], [-8.300214651972055, 43.54721928946674], [-8.300669034942985, 43.547521624714136], [-8.300822339951992, 43.547717090696096], [-8.30127320252359, 43.547810800373554], [-8.302627298980951, 43.54795312508941], [-8.302811868488789, 43.54810525663197], [-8.303106743842363, 43.54851278476417], [-8.303692387416959, 43.54874764569104], [-8.304318683221936, 43.549225917086005], [-8.304548263549805, 43.54924578219652], [-8.304771976545453, 43.54913589544594], [-8.304878510534763, 43.54888175614178], [-8.304766528308392, 43.54848889634013], [-8.304779436439276, 43.548350762575865], [-8.30485143698752, 43.548214891925454], [-8.305349322035909, 43.54803971014917], [-8.305681329220533, 43.54803971014917], [-8.30624409019947, 43.548127049580216], [-8.306428156793118, 43.54808019474149], [-8.307092087343335, 43.54775682091713], [-8.30737422220409, 43.54772983118892], [-8.307955088093877, 43.5478376224637], [-8.30825381912291, 43.5478241275996], [-8.309116903692484, 43.54763553477824], [-8.309996584430337, 43.54759505018592], [-8.311440534889698, 43.54731207713485], [-8.311639688909054, 43.54731207713485], [-8.31221904605627, 43.547588093206286], [-8.312535881996155, 43.54801280423999], [-8.312552478164434, 43.548403568565845], [-8.312385007739067, 43.54866608977318], [-8.31122319214046, 43.549968637526035], [-8.311167871579528, 43.550193188712], [-8.3109465893358, 43.550552520900965], [-8.310227422043681, 43.551091477274895], [-8.310115691274405, 43.55123883113265], [-8.310242593288422, 43.55145080946386], [-8.310073362663388, 43.55181944556534], [-8.310117032378912, 43.55200435034931], [-8.310087192803621, 43.5523241199553], [-8.310130778700113, 43.55276132002473], [-8.309810422360897, 43.553272197023034], [-8.309633731842041, 43.553852727636695], [-8.309837076812983, 43.55416621081531], [-8.309789970517159, 43.5547935962677], [-8.309969259425998, 43.55530229397118], [-8.310418864712119, 43.5558972414583], [-8.310515088960528, 43.55607032775879], [-8.310543419793248, 43.55626864358783], [-8.310780711472034, 43.55657081119716], [-8.311082627624273, 43.557168524712324], [-8.310971735045314, 43.55823679827154], [-8.310854556038976, 43.558714063838124], [-8.310874672606587, 43.55925117619336], [-8.31096075475216, 43.55955426581204], [-8.311075000092387, 43.55968669988215], [-8.311301060020924, 43.559770938009024], [-8.312007319182158, 43.559817876666784], [-8.312564883381128, 43.559784181416035], [-8.313287990167737, 43.5596133582294], [-8.313484378159046, 43.55967043899], [-8.313311291858554, 43.559986436739564], [-8.313151197507977, 43.56050510890782], [-8.313168296590447, 43.56078422628343], [-8.313048016279936, 43.561463160440326], [-8.313081040978432, 43.56208434328437], [-8.3129963837564, 43.56246806681156], [-8.312936117872596, 43.5632916726172], [-8.312993114814162, 43.564108572900295], [-8.312954641878605, 43.564788177609444], [-8.313060337677598, 43.56497132219374], [-8.31293385475874, 43.565332079306245], [-8.312732772901654, 43.56557850725949], [-8.312665047124028, 43.56578931212425], [-8.312669321894646, 43.56597790494561], [-8.313101744279265, 43.566392390057445], [-8.313554786145687, 43.5666933003813], [-8.313577836379409, 43.56687384657562], [-8.31385393626988, 43.567196717485785], [-8.313822336494923, 43.56754054315388], [-8.313496364280581, 43.56781697832048], [-8.313100151717663, 43.567898366600275], [-8.311864659190178, 43.56778973713517], [-8.311355039477348, 43.56764548458159], [-8.310236306861043, 43.56790943071246], [-8.31006464548409, 43.56786844320595], [-8.309995913878083, 43.56723711825907], [-8.31033923663199, 43.56671819463372], [-8.310527494177222, 43.566586850211024], [-8.310459265485406, 43.56650982052088], [-8.310493044555187, 43.566455505788326], [-8.310346864163876, 43.566331788897514], [-8.310347367078066, 43.56589701958001], [-8.310417858883739, 43.56573482975364], [-8.31045314669609, 43.56536669656634], [-8.310712818056345, 43.56495891697705], [-8.310819268226624, 43.56445675715804], [-8.310347367078066, 43.56402508914471], [-8.310125833377242, 43.56374169699848], [-8.309748563915491, 43.56352443806827], [-8.309856439009309, 43.56328488327563], [-8.309865240007639, 43.56285120360553], [-8.310130946338177, 43.56229682452977], [-8.31011837348342, 43.56216615065932], [-8.310050228610635, 43.56210454367101], [-8.30982819199562, 43.562074955552816], [-8.309374563395977, 43.562494637444615], [-8.308773748576641, 43.562544928863645], [-8.308426570147276, 43.56237326748669], [-8.307641604915261, 43.562108064070344], [-8.306963760405779, 43.56168117374182], [-8.30614727921784, 43.56130809523165], [-8.305698093026876, 43.56100785546005], [-8.305126614868641, 43.56080115772784], [-8.304807431995869, 43.56054701842368], [-8.304618755355477, 43.56023043394089], [-8.304678685963154, 43.55986129492521], [-8.30495503731072, 43.55955904349685], [-8.304960569366813, 43.55945234186947], [-8.30381166189909, 43.55818893760443], [-8.303635222837329, 43.55817653238773], [-8.303501447662711, 43.55822313576937], [-8.302803402766585, 43.55813931673765], [-8.301777876913548, 43.55772533454001], [-8.301469422876835, 43.55746574699879], [-8.301392057910562, 43.55725485831499], [-8.301420472562313, 43.55702427215874], [-8.301307233050466, 43.5568727273494], [-8.301155772060156, 43.55676862411201], [-8.300790907815099, 43.55677482672036], [-8.300675489008427, 43.556731743738055], [-8.300464348867536, 43.55657651089132], [-8.30030919983983, 43.556330585852265], [-8.30007509328425, 43.55615800246596], [-8.300030585378408, 43.55602456256747], [-8.300075931474566, 43.55593127198517], [-8.300431743264198, 43.55556766502559], [-8.300961060449481, 43.55472561903298], [-8.300719410181046, 43.55456183664501], [-8.299676533788443, 43.554326724261045], [-8.299701176583767, 43.55391517281532], [-8.299771081656218, 43.553713923320174], [-8.299721125513315, 43.55329792946577], [-8.299919944256544, 43.5526832845062], [-8.299984317272902, 43.55214265175164], [-8.300810772925615, 43.55080531910062], [-8.301098858937621, 43.549974923953414], [-8.30108217895031, 43.54989345185459], [-8.30098788253963, 43.549805358052254], [-8.300259662792087, 43.549425825476646], [-8.299939977005124, 43.54938701726496], [-8.299450473859906, 43.54947745800018], [-8.298992235213518, 43.549419371411204], [-8.298473311588168, 43.54950796812773], [-8.296450758352876, 43.54964048601687], [-8.295942060649395, 43.54973134584725], [-8.295302269980311, 43.5497547313571], [-8.294860208407044, 43.54982765391469], [-8.294233325868845, 43.5497771948576], [-8.292995737865567, 43.54990242049098], [-8.292789459228516, 43.55000509880483], [-8.292644452303648, 43.549924213439226], [-8.292305571958423, 43.54990501888096], [-8.29008269123733, 43.549986742436886], [-8.289700727909803, 43.5499444976449], [-8.289261516183615, 43.549990598112345], [-8.288407903164625, 43.55052653700113], [-8.28778462484479, 43.550990810617805], [-8.286770079284906, 43.55160243809223], [-8.286493560299277, 43.55170059017837], [-8.285129992291331, 43.55261145159602], [-8.284968975931406, 43.55267096310854], [-8.283307179808617, 43.5517559107393], [-8.283100398257375, 43.55158718302846], [-8.281892230734229, 43.55029435828328], [-8.281738758087158, 43.5503348428756], [-8.279616627842188, 43.55207492597401], [-8.279417809098959, 43.55222546495497], [-8.279314376413822, 43.55224440805614], [-8.267021053660045, 43.5481055140921], [-8.265002541530123, 43.55145989703496], [-8.262791603091841, 43.55281252104567], [-8.261016609311014, 43.5553851717784], [-8.260337875923028, 43.556280595858624], [-8.2579192149731, 43.55739026502877], [-8.257379742985307, 43.55726422149007], [-8.2565792590282, 43.55764250247819], [-8.254170091822743, 43.55709166266024], [-8.254158105701208, 43.55720540508628], [-8.254332868382335, 43.557282350957394], [-8.254441162571311, 43.557405062019825], [-8.254625564441085, 43.55792867951095], [-8.254423225298524, 43.55816261842847], [-8.254250977188349, 43.55872102081776], [-8.25389139354229, 43.5590554587543], [-8.252755226567388, 43.559742188081145], [-8.252220712602139, 43.56011878699064], [-8.251226199790835, 43.56035163626075], [-8.250644244253635, 43.560362197458744], [-8.249692982062697, 43.56049429625273], [-8.249341109767556, 43.56059035286307], [-8.248773654922843, 43.560874331742525], [-8.248802069574594, 43.56094004586339], [-8.249221500009298, 43.56110282242298], [-8.249727850779891, 43.56144614517689], [-8.249793816357851, 43.56164404191077], [-8.249638248234987, 43.56181184761226], [-8.24900021776557, 43.5620154440403], [-8.247784841805696, 43.562097419053316], [-8.247226690873504, 43.56208333745599], [-8.246759986504912, 43.56230026111007], [-8.245463306084275, 43.56269278563559], [-8.242404079064727, 43.562612822279334], [-8.241883059963584, 43.562484830617905], [-8.241747692227364, 43.562501426786184], [-8.241657335311174, 43.562632938846946], [-8.24163076467812, 43.56298891827464], [-8.242070060223341, 43.56373004615307], [-8.242106772959232, 43.56402475386858], [-8.24197232723236, 43.56460981070995], [-8.241744088009, 43.564874762669206], [-8.24149246327579, 43.565052039921284], [-8.241303451359272, 43.565138541162014], [-8.240788551047444, 43.565235771238804], [-8.239658921957016, 43.56532855890691], [-8.23900781571865, 43.56563868932426], [-8.238618560135365, 43.56577154248953], [-8.237374601885676, 43.56569627299905], [-8.236743360757828, 43.56594471260905], [-8.23497268371284, 43.5670611821115], [-8.233751943334937, 43.56751539744437], [-8.232442857697606, 43.56786374934018], [-8.231755709275603, 43.56817429885268], [-8.231038134545088, 43.56835677288473], [-8.230845769867301, 43.56835853308439], [-8.230382166802883, 43.56817748397589], [-8.229199731722474, 43.56743258424103], [-8.228344526141882, 43.567298389971256], [-8.227715296670794, 43.56709588319063], [-8.22747758589685, 43.56711306609213], [-8.226621206849813, 43.56744825839996], [-8.226404702290893, 43.56745798140764], [-8.225880414247513, 43.56763584539294], [-8.225368950515985, 43.567685298621655], [-8.224802082404494, 43.56787355616689], [-8.224342418834567, 43.56826398521662], [-8.22420570999384, 43.568327436223626], [-8.223702879622579, 43.56825384311378], [-8.223543874919415, 43.56832173652947], [-8.22300273925066, 43.56888039037585], [-8.22280241176486, 43.56924290768802], [-8.222108725458384, 43.57003181241453], [-8.22162919677794, 43.570342026650906], [-8.221606565639377, 43.57055685482919], [-8.221502881497145, 43.57077361084521], [-8.221510592848063, 43.570945523679256], [-8.221051767468452, 43.57141876593232], [-8.220770135521889, 43.57204807922244], [-8.220114670693874, 43.57270002365112], [-8.219874193891883, 43.573001101613045], [-8.218497109232146, 43.57377285294302], [-8.217322250653496, 43.574212472513125], [-8.216276502919214, 43.57468014798303], [-8.215024186247206, 43.575456461313024], [-8.21490794313894, 43.57599895324822], [-8.215191936362856, 43.57640114950382], [-8.216792626259831, 43.57700913632135], [-8.217577694248405, 43.577195868301374], [-8.218261938077347, 43.57789731899308], [-8.217655207183583, 43.57872970584873], [-8.217384094467974, 43.57957143329068], [-8.216502400967926, 43.57956875088513], [-8.216024713304364, 43.5796155080686], [-8.215585758819486, 43.57990542475906], [-8.214940224879143, 43.58014859366088], [-8.213765366300493, 43.580186020165826], [-8.212267750517668, 43.57970907457147], [-8.212278247528616, 43.580832068521744], [-8.212813363538032, 43.58147394358164], [-8.213792047427432, 43.58178152316498], [-8.213983869582762, 43.58219104557389], [-8.213556378097508, 43.582545205990385], [-8.213845627776692, 43.58274353020795], [-8.214341527268772, 43.58271360629783], [-8.214455198162625, 43.58278095352887], [-8.213902476900614, 43.58299424767938], [-8.212285693484375, 43.58334220604601], [-8.211763995988576, 43.58361158875232], [-8.211185446430505, 43.58373881318008], [-8.212485750869206, 43.58404904218415], [-8.213324020701407, 43.58438242336962], [-8.214080119505525, 43.58540606684983], [-8.214769010539072, 43.58721329447232], [-8.211599114136021, 43.586632171035745], [-8.209218366189418, 43.58545080229095], [-8.207797848759668, 43.584983957128], [-8.206298637236358, 43.58475534914737], [-8.206296044745613, 43.58424514902285], [-8.20583029472374, 43.584355777380125], [-8.205168480071137, 43.58465077800744], [-8.203717684024838, 43.58488102334019], [-8.203153856945733, 43.58492426708176], [-8.202855290843218, 43.584712862037605], [-8.202682037835217, 43.58501092194737], [-8.202331158633001, 43.58584862429285], [-8.202001965139175, 43.58602433932043], [-8.20197542544787, 43.58650185758316], [-8.202669809516351, 43.5872842947949], [-8.202794617988616, 43.58772256476425], [-8.202335110102013, 43.58800189414521], [-8.202125867620794, 43.58820396985706], [-8.201925856992602, 43.588969046249986], [-8.202854907140136, 43.590194480493665], [-8.203009804710746, 43.590499917045236], [-8.203142574056983, 43.59078733250499], [-8.203164702281356, 43.59141614288092], [-8.203098317608237, 43.591667683795094], [-8.202899163588881, 43.59184739179909], [-8.202766394242644, 43.591901287436485], [-8.202323745936155, 43.59240428544581], [-8.202168848365545, 43.592673847451806], [-8.202080335468054, 43.59294332563877], [-8.202013950794935, 43.59344640746713], [-8.202058207243681, 43.59373382292688], [-8.202213859185576, 43.59404454007745], [-8.20252918638289, 43.5942870285362], [-8.202562378719449, 43.59440831467509], [-8.202097602188587, 43.59465088695288], [-8.20198142901063, 43.59489345923066], [-8.201798871159554, 43.59512245282531], [-8.201749082654715, 43.59509554691613], [-8.201732486486435, 43.594974260777235], [-8.201732486486435, 43.59461048617959], [-8.201549928635359, 43.59461048617959], [-8.201489159837365, 43.59467318281531], [-8.201383966952562, 43.595230327919126], [-8.201317582279444, 43.59528422355652], [-8.201190428808331, 43.59522119164467], [-8.201251197606325, 43.59465088695288], [-8.201057659462094, 43.59464627690613], [-8.200969062745571, 43.59510904178023], [-8.200869485735893, 43.595324624329805], [-8.200852889567614, 43.59560759738088], [-8.200852889567614, 43.59571538865566], [-8.20101885125041, 43.59591747634113], [-8.20103544741869, 43.59607916325331], [-8.200836293399334, 43.59609265811741], [-8.200720120221376, 43.59585016965866], [-8.200526582077146, 43.595679346472025], [-8.20041585713625, 43.595679346472025], [-8.200371600687504, 43.59573324210942], [-8.200570670887828, 43.596187038347125], [-8.200786504894495, 43.596469927579165], [-8.200786504894495, 43.59668559394777], [-8.200637055560946, 43.596820291131735], [-8.200255343690515, 43.59684728085995], [-8.200155766680837, 43.596793385222554], [-8.199857035651803, 43.59642952680588], [-8.199425535276532, 43.59624093398452], [-8.199309362098575, 43.5962678398937], [-8.19914348423481, 43.59646087512374], [-8.198927566409111, 43.59660470858216], [-8.19861232303083, 43.59697284176946], [-8.198346700519323, 43.59711675904691], [-8.198157688602805, 43.59715539962053], [-8.197007356211543, 43.597235111519694], [-8.193491818383336, 43.59733552671969], [-8.193148663267493, 43.59732035547495], [-8.192430501803756, 43.597163865342736], [-8.192094303667545, 43.596887765452266], [-8.19193722680211, 43.59684099443257], [-8.19090524688363, 43.597105108201504], [-8.188697788864374, 43.59674133360386], [-8.188199903815985, 43.59671434387565], [-8.18798415362835, 43.59675474464893], [-8.188000749796629, 43.59690302051604], [-8.188150115311146, 43.59698382206261], [-8.188216499984264, 43.59711860306561], [-8.189029712229967, 43.598115714266896], [-8.189062904566526, 43.59854687936604], [-8.18888034671545, 43.599072424694896], [-8.18888034671545, 43.599328408017755], [-8.189188968390226, 43.6008386593312], [-8.189219981431961, 43.60112766735256], [-8.189179329201579, 43.60157048329711], [-8.188939942047, 43.60163535922766], [-8.187233721837401, 43.60167508944869], [-8.187167337164283, 43.60186175443232], [-8.187164822593331, 43.60212218016386], [-8.187242355197668, 43.60246307216585], [-8.187177730724216, 43.602625764906406], [-8.18725367076695, 43.603103617206216], [-8.187206229194999, 43.60319330357015], [-8.18676651455462, 43.60322850756347], [-8.18453106097877, 43.603113843128085], [-8.183166906237602, 43.60312046483159], [-8.183052828535438, 43.60315809957683], [-8.182649742811918, 43.60315357334912], [-8.1823795940727, 43.603098252788186], [-8.18149907514453, 43.603138737380505], [-8.180762305855751, 43.60310629941523], [-8.18071536719799, 43.60303631052375], [-8.180755684152246, 43.60282047651708], [-8.180886525660753, 43.60241571441293], [-8.180975709110498, 43.60186351463199], [-8.181095235049725, 43.6016539670527], [-8.18119129166007, 43.60130527988076], [-8.181339651346207, 43.60058577731252], [-8.181314673274755, 43.60046482644975], [-8.180924328044057, 43.60077537596226], [-8.180603552609682, 43.60089289024472], [-8.180078594014049, 43.60098986886442], [-8.1798324175179, 43.600956005975604], [-8.179620690643787, 43.6009943112731], [-8.179253982380033, 43.60087386332452], [-8.17865576595068, 43.600771771743894], [-8.177308291196823, 43.60073338262737], [-8.17655903287232, 43.600535318255424], [-8.175745569169521, 43.60048142261803], [-8.174687772989273, 43.60029408708215], [-8.172893542796373, 43.59981095418334], [-8.172834450379014, 43.599863424897194], [-8.172806287184358, 43.600238766521215], [-8.172632530331612, 43.60095147974789], [-8.172636553645134, 43.6012205388397], [-8.172503616660833, 43.601413909345865], [-8.17213892005384, 43.60167081467807], [-8.171765925362706, 43.60178832896054], [-8.171615218743682, 43.601891761645675], [-8.17063394933939, 43.6022774130106], [-8.169867256656289, 43.60245200805366], [-8.168685911223292, 43.60249391756952], [-8.168427916243672, 43.60248872078955], [-8.16837452352047, 43.60242862254381], [-8.16835499368608, 43.601957224309444], [-8.16839556209743, 43.601622534915805], [-8.168568648397923, 43.601140743121505], [-8.168964525684714, 43.60054939985275], [-8.168955389410257, 43.60050388611853], [-8.16888322122395, 43.60050086863339], [-8.168405033648014, 43.6007419321686], [-8.168121054768562, 43.60079616308212], [-8.167614536359906, 43.60071410425007], [-8.167133079841733, 43.60053900629282], [-8.166562775149941, 43.60067437402904], [-8.166232444345951, 43.60070270486176], [-8.165680915117264, 43.600663896650076], [-8.165250169113278, 43.60069876536727], [-8.164961161091924, 43.600641433149576], [-8.164641559123993, 43.6006782297045], [-8.164090868085623, 43.600603295490146], [-8.163296515122056, 43.60064981505275], [-8.16295805387199, 43.60060757026076], [-8.162879515439272, 43.60054453834891], [-8.162937769666314, 43.60033230856061], [-8.162939110770822, 43.60001605935395], [-8.162894183769822, 43.599923523142934], [-8.16297959536314, 43.59947291202843], [-8.162872977554798, 43.59922371804714], [-8.162862416356802, 43.59901433810592], [-8.16278069280088, 43.59880403615534], [-8.162805754691362, 43.59856883995235], [-8.162721265107393, 43.5983348172158], [-8.16275973804295, 43.598211435601115], [-8.162932991981506, 43.59797338955104], [-8.163393829017878, 43.59761782921851], [-8.165523754432797, 43.59640320762992], [-8.165669096633792, 43.596220314502716], [-8.165799267590046, 43.59589668922126], [-8.166433777660131, 43.595119938254356], [-8.16638583317399, 43.59502916224301], [-8.165919128805399, 43.59487334266305], [-8.165430463850498, 43.59454192221165], [-8.16462722606957, 43.59457528218627], [-8.164237132295966, 43.59474082477391], [-8.163943933323026, 43.59476328827441], [-8.163788951933384, 43.59458366408944], [-8.163777887821198, 43.59439951367676], [-8.163722567260265, 43.59436355531216], [-8.163542775437236, 43.59437696635723], [-8.161697331815958, 43.59521381556988], [-8.160987384617329, 43.595448257401586], [-8.159855492413044, 43.59572980552912], [-8.159600514918566, 43.59568823128939], [-8.157982723787427, 43.596033565700054], [-8.156514298170805, 43.5962038859725], [-8.155244942754507, 43.59617312438786], [-8.15505794249475, 43.596250489354134], [-8.154316814616323, 43.5963143594563], [-8.153998302295804, 43.59643070027232], [-8.153897635638714, 43.596778800711036], [-8.153920602053404, 43.59743426553905], [-8.153967708349228, 43.597504422068596], [-8.15393066033721, 43.59748908318579], [-8.1539086997509, 43.59759251587093], [-8.153944071382284, 43.59824043698609], [-8.15410173498094, 43.59898215159774], [-8.154170215129852, 43.59949805773795], [-8.154165269806981, 43.59989737160504], [-8.154281442984939, 43.60008168965578], [-8.154630465433002, 43.60195814631879], [-8.154694167897105, 43.602056466042995], [-8.154808999970555, 43.60257069580257], [-8.154794918373227, 43.6027108412236], [-8.15486490726471, 43.60283941961825], [-8.154942691326141, 43.60383678227663], [-8.155057858675718, 43.60440901480615], [-8.155051991343498, 43.60508660785854], [-8.154960293322802, 43.605645932257175], [-8.154935566708446, 43.60628815367818], [-8.15479357726872, 43.60670850612223], [-8.154502222314477, 43.60710262320936], [-8.15446768887341, 43.607360450550914], [-8.154515130445361, 43.60766387544572], [-8.154753344133496, 43.60820794478059], [-8.155112592503428, 43.609545612707734], [-8.154960796236992, 43.610792588442564], [-8.154880413785577, 43.610978750512004], [-8.153610387817025, 43.61250995658338], [-8.152736322954297, 43.61300339922309], [-8.152269031852484, 43.61334160901606], [-8.152072140946984, 43.61363288015127], [-8.152370620518923, 43.61380328424275], [-8.152414876967669, 43.613884169608355], [-8.151530418545008, 43.614880526438355], [-8.151125656440854, 43.61509443260729], [-8.150846622884274, 43.61517087556422], [-8.150711841881275, 43.615269027650356], [-8.150609247386456, 43.61551025882363], [-8.150649480521679, 43.61593161709607], [-8.150501288473606, 43.616141164675355], [-8.149956297129393, 43.61648742109537], [-8.149593193084002, 43.6168950330466], [-8.14907368272543, 43.617232823744416], [-8.149014925584197, 43.61769969575107], [-8.148447973653674, 43.61824678257108], [-8.148382343351841, 43.61840025521815], [-8.14833297394216, 43.61871784552932], [-8.148427940905094, 43.61911087296903], [-8.148370441049337, 43.619282031431794], [-8.147977832704782, 43.61971822567284], [-8.147726207971573, 43.61987949348986], [-8.147278865799308, 43.62005744129419], [-8.14708448946476, 43.62025843933225], [-8.147189682349563, 43.620549626648426], [-8.14748464152217, 43.62077451311052], [-8.147834837436676, 43.621219927445054], [-8.147860066965222, 43.62140114419162], [-8.147755125537515, 43.621640615165234], [-8.147619925439358, 43.621716387569904], [-8.147246344015002, 43.62178654409945], [-8.14695498906076, 43.62162628211081], [-8.146218052133918, 43.62157548777759], [-8.145922757685184, 43.62162292934954], [-8.145860312506557, 43.621671041473746], [-8.145898031070828, 43.621799452230334], [-8.146120570600033, 43.62203733064234], [-8.146045552566648, 43.622080916538835], [-8.146012779325247, 43.62246229313314], [-8.145936587825418, 43.622582741081715], [-8.145693009719253, 43.622773848474026], [-8.145534927025437, 43.622839311137795], [-8.14497459679842, 43.622833946719766], [-8.144066082313657, 43.62291977740824], [-8.144030794501305, 43.62313183955848], [-8.144100531935692, 43.62401478923857], [-8.14407555386424, 43.6244953237474], [-8.143994081765413, 43.624906623736024], [-8.144005564972758, 43.625125056132674], [-8.143907329067588, 43.625415824353695], [-8.143564173951745, 43.62574833445251], [-8.143288074061275, 43.6258574668318], [-8.142175041139126, 43.62579971551895], [-8.141103917732835, 43.62567306496203], [-8.140914067626, 43.62558547407389], [-8.140545515343547, 43.62598822452128], [-8.13974479213357, 43.62663907930255], [-8.139510015025735, 43.62747559323907], [-8.139510015025735, 43.62761934287846], [-8.139133751392365, 43.628140361979604], [-8.138956725597382, 43.62848167307675], [-8.13886821269989, 43.62876917235553], [-8.138735443353653, 43.62896681763232], [-8.138270750641823, 43.629451878368855], [-8.137872442603111, 43.62977525219321], [-8.13771746121347, 43.630062751471996], [-8.137584691867232, 43.630673540756106], [-8.137429794296622, 43.630673540756106], [-8.13703148625791, 43.630457958206534], [-8.135632881894708, 43.63001103512943], [-8.135615196079016, 43.629883043468], [-8.135732458904386, 43.629606775939465], [-8.135389471426606, 43.628834215924144], [-8.135522240772843, 43.628789288923144], [-8.135887356474996, 43.62878032028675], [-8.135924991220236, 43.62840984016657], [-8.135482426732779, 43.62761934287846], [-8.135194759815931, 43.627277947962284], [-8.134552957490087, 43.62677486613393], [-8.134154649451375, 43.626146055758], [-8.134088264778256, 43.62593047320843], [-8.133822726085782, 43.62553518265486], [-8.133712084963918, 43.62522982992232], [-8.133601443842053, 43.6251219548285], [-8.133377395570278, 43.62472029402852], [-8.133221240714192, 43.624728759750724], [-8.13306475058198, 43.62484929151833], [-8.13269385136664, 43.625418338924646], [-8.132658479735255, 43.6255987174809], [-8.13273693434894, 43.62587573938072], [-8.132725870236756, 43.62603348679842], [-8.13005971571264, 43.62874462326623], [-8.129469794194005, 43.628795261741864], [-8.128337841720072, 43.62851182772258], [-8.12837390229106, 43.63023441284895], [-8.128267619758844, 43.63041671924293], [-8.127971487119794, 43.63049441948533], [-8.127949358895421, 43.6305580381304], [-8.127979701384902, 43.631445514038205], [-8.12801524065435, 43.631526650860906], [-8.128387816250324, 43.63181599415839], [-8.128395611420274, 43.63189905881882], [-8.127698320895433, 43.632232742384076], [-8.126727025955915, 43.63281134516001], [-8.125298749655485, 43.6338911857456], [-8.125239573419094, 43.63387316465378], [-8.125045699998736, 43.633616929873824], [-8.124921564012766, 43.633550964295864], [-8.124022018164396, 43.633511485531926], [-8.123133620247245, 43.63381960429251], [-8.122833967208862, 43.633861765265465], [-8.12213416211307, 43.634072402492166], [-8.121751863509417, 43.63410148769617], [-8.120025359094143, 43.6346282903105], [-8.119834922254086, 43.63463692367077], [-8.119766442105174, 43.63456190563738], [-8.119549183174968, 43.63485837355256], [-8.119483217597008, 43.63511913456023], [-8.119432674720883, 43.63515350036323], [-8.119314992800355, 43.635045289993286], [-8.118924479931593, 43.63437348045409], [-8.118747873231769, 43.633532859385014], [-8.11841326765716, 43.63308744505048], [-8.118295250460505, 43.63268888555467], [-8.117802729830146, 43.632333828136325], [-8.117366703227162, 43.63226308487356], [-8.117244243621826, 43.63219837658107], [-8.117020949721336, 43.63174349069595], [-8.116972418501973, 43.63107427954674], [-8.11743744648993, 43.630044143646955], [-8.117433423176408, 43.62976494245231], [-8.117575328797102, 43.6292976513505], [-8.11755957081914, 43.62898810766637], [-8.117445912212133, 43.628806388005614], [-8.11696982011199, 43.62865559756756], [-8.116796230897307, 43.62854830920696], [-8.116571512073278, 43.62791245803237], [-8.116625072434545, 43.62763593904674], [-8.11585083603859, 43.62727819941938], [-8.115725945681334, 43.62713864073157], [-8.115610694512725, 43.62687611952424], [-8.11555135063827, 43.62667922861874], [-8.11548538506031, 43.62582586705685], [-8.115313975140452, 43.62535153515637], [-8.114923126995564, 43.62464636564255], [-8.114598579704762, 43.623332837596536], [-8.11457158997655, 43.623021617531776], [-8.11462146230042, 43.622785499319434], [-8.114503361284733, 43.622575448825955], [-8.114407723769546, 43.621702305972576], [-8.114457428455353, 43.6213728133589], [-8.114678459241986, 43.620935529470444], [-8.114655995741487, 43.62065959721804], [-8.114737970754504, 43.62035139463842], [-8.11467762105167, 43.620058447122574], [-8.114555580541492, 43.619965659454465], [-8.11458332464099, 43.61992676742375], [-8.114481400698423, 43.619872787967324], [-8.114057527855039, 43.61987262032926], [-8.113582106307149, 43.62008258700371], [-8.113390496000648, 43.62043504603207], [-8.113108361139894, 43.62067678011954], [-8.112567225471139, 43.62085196189582], [-8.112461026757956, 43.62080343067646], [-8.112390115857124, 43.620530096814036], [-8.11230344697833, 43.6203989200294], [-8.111916119232774, 43.62027553841472], [-8.11146592721343, 43.61997865140438], [-8.110850108787417, 43.61932419240475], [-8.111178344115615, 43.618871653452516], [-8.111542873084545, 43.61865187995136], [-8.111904133111238, 43.618184588849545], [-8.112130528315902, 43.61803547479212], [-8.11268549412489, 43.61785802990198], [-8.112947763875127, 43.61748721450567], [-8.11324842274189, 43.616827642545104], [-8.113635247573256, 43.616432854905725], [-8.113988293334842, 43.61597000621259], [-8.114202367141843, 43.61536256968975], [-8.114140508696437, 43.614950431510806], [-8.113874550908804, 43.614435782656074], [-8.113684616982937, 43.613775707781315], [-8.113552937284112, 43.61351318657398], [-8.113446487113833, 43.61287289299071], [-8.11330852098763, 43.612650437280536], [-8.11322696506977, 43.612335780635476], [-8.113146834075451, 43.61228356137872], [-8.113047005608678, 43.612089939415455], [-8.11289856210351, 43.61197133548558], [-8.112750202417374, 43.611733205616474], [-8.11264836229384, 43.61145945265889], [-8.112649200484157, 43.61117270775139], [-8.112592874094844, 43.6109359189868], [-8.112354660406709, 43.61065252684057], [-8.11221744865179, 43.61016151495278], [-8.112153746187687, 43.61011407338083], [-8.112062131986022, 43.609892623499036], [-8.111945874989033, 43.60931561328471], [-8.11192718334496, 43.608836168423295], [-8.111844453960657, 43.60870599746704], [-8.11135788448155, 43.60841816291213], [-8.110978687182069, 43.608244406059384], [-8.110775593668222, 43.60821238718927], [-8.110754219815135, 43.60826334916055], [-8.110850779339671, 43.6085251159966], [-8.110526064410806, 43.6090222466737], [-8.110175700858235, 43.609740072861314], [-8.10951185412705, 43.609669329598546], [-8.1085145752877, 43.60973856411874], [-8.108480796217918, 43.60966773703694], [-8.108644913882017, 43.60927672125399], [-8.108640303835273, 43.60903859138489], [-8.10858104377985, 43.60890137962997], [-8.108589928597212, 43.608560571447015], [-8.108355905860662, 43.608108619228005], [-8.107934631407261, 43.607918517664075], [-8.10807729139924, 43.607331197708845], [-8.108045356348157, 43.60723631456494], [-8.108082571998239, 43.60706909559667], [-8.108351631090045, 43.60680632293224], [-8.108893353492022, 43.606630554422736], [-8.109422251582146, 43.606526451185346], [-8.109868252649903, 43.60634523443878], [-8.109997753053904, 43.606218583881855], [-8.110220124945045, 43.60574693419039], [-8.110475772991776, 43.60541006550193], [-8.110503181815147, 43.60517403110862], [-8.110673418268561, 43.60475527122617], [-8.11091624200344, 43.604453690350056], [-8.111061248928308, 43.60435956157744], [-8.111209608614445, 43.60410952940583], [-8.111524349078536, 43.60393920913339], [-8.111563492566347, 43.60386167652905], [-8.11151571571827, 43.6037156637758], [-8.111593835055828, 43.603615667670965], [-8.11168285086751, 43.60334333963692], [-8.111975630745292, 43.60316840931773], [-8.11210940591991, 43.60301887616515], [-8.111932212486863, 43.60273690894246], [-8.111846130341291, 43.60225746408105], [-8.111883429810405, 43.60199804417789], [-8.11205517500639, 43.60157299786806], [-8.112145029008389, 43.60150292515755], [-8.112500673159957, 43.60149085521698], [-8.11270653270185, 43.60141206532717], [-8.113013310357928, 43.60123076476157], [-8.113377839326859, 43.600892554968596], [-8.114434545859694, 43.60098567791283], [-8.114523980766535, 43.600930692628026], [-8.114637974649668, 43.600364327430725], [-8.114509647712111, 43.59954474493861], [-8.114795554429293, 43.599045015871525], [-8.1156085152179, 43.59840287826955], [-8.115655705332756, 43.59832257963717], [-8.115710020065308, 43.59773048199713], [-8.115865169093013, 43.59765177592635], [-8.116180831566453, 43.5976889077574], [-8.116813832893968, 43.596913162618876], [-8.11702891252935, 43.59671241603792], [-8.11733870767057, 43.59653421677649], [-8.117729388177395, 43.596477722749114], [-8.117704661563039, 43.59624311327934], [-8.117764424532652, 43.595954440534115], [-8.11793684028089, 43.59586098231375], [-8.118321988731623, 43.595914877951145], [-8.119434351101518, 43.5959084238857], [-8.119733836501837, 43.595812199637294], [-8.120397767052054, 43.595726201310754], [-8.120523914694786, 43.595756040886045], [-8.12080898322165, 43.596251495182514], [-8.120911410078406, 43.59631880186498], [-8.121347604319453, 43.59553936868906], [-8.121714228764176, 43.595207277685404], [-8.121846998110414, 43.59491818584502], [-8.122300459071994, 43.59435835853219], [-8.122471198439598, 43.59401344321668], [-8.123182905837893, 43.593965247273445], [-8.123306035995483, 43.594009252265096], [-8.123398320749402, 43.59445475041866], [-8.123747175559402, 43.595474073663354], [-8.123816661536694, 43.595763416960835], [-8.123790677636862, 43.59582326374948], [-8.12390148639679, 43.5959586314857], [-8.124080607667565, 43.5959258582443], [-8.123994274064898, 43.59493738040328], [-8.123747846111655, 43.59411830082536], [-8.123737955465913, 43.59384806826711], [-8.123607197776437, 43.593370551243424], [-8.123566042631865, 43.59296369366348], [-8.123351382091641, 43.592240922152996], [-8.123326823115349, 43.59200304374099], [-8.123239735141397, 43.59181646257639], [-8.123200675472617, 43.59136987477541], [-8.123103445395827, 43.59111187979579], [-8.123052902519703, 43.590627908706665], [-8.122864728793502, 43.59013454988599], [-8.122745202854276, 43.58938344754279], [-8.122694492340088, 43.5893086809665], [-8.122529368847609, 43.58846973627806], [-8.122380170971155, 43.58807318843901], [-8.121983371675014, 43.58736156485975], [-8.121755803003907, 43.586474591866136], [-8.121613394469023, 43.586308881640434], [-8.120731534436345, 43.58560170046985], [-8.120576720684767, 43.58540430665016], [-8.120463229715824, 43.58508411794901], [-8.120519304648042, 43.58462629839778], [-8.120840331539512, 43.584189182147384], [-8.121489007025957, 43.58366279862821], [-8.12193425372243, 43.58342324383557], [-8.122046235948801, 43.58329868875444], [-8.12250162474811, 43.58307648450136], [-8.122938824817538, 43.582550436258316], [-8.123189862817526, 43.58172724954784], [-8.123546848073602, 43.581205727532506], [-8.123713647946715, 43.58084052801132], [-8.12376025132835, 43.580523608252406], [-8.124033752828836, 43.579851714894176], [-8.124469025060534, 43.57920781709254], [-8.124216394498944, 43.578923838213086], [-8.123621782287955, 43.57845705002546], [-8.123619686812162, 43.57819796539843], [-8.123770812526345, 43.57777048833668], [-8.123735943809152, 43.577479887753725], [-8.123623710125685, 43.5772274248302], [-8.123592613264918, 43.5770064778626], [-8.12302440404892, 43.576351180672646], [-8.122891886159778, 43.576057478785515], [-8.122920636087656, 43.57575539499521], [-8.122456530109048, 43.57510160654783], [-8.122405400499701, 43.57496255077422], [-8.122469941154122, 43.574481680989265], [-8.122793901711702, 43.574029728770256], [-8.122900100424886, 43.573654387146235], [-8.123348951339722, 43.573192209005356], [-8.123487420380116, 43.5728410910815], [-8.123392621055245, 43.5723936650902], [-8.12345682643354, 43.57187692075968], [-8.12342757359147, 43.57146411202848], [-8.123499238863587, 43.57119790278375], [-8.123526312410831, 43.57082205824554], [-8.123139571398497, 43.570165587589145], [-8.123065140098333, 43.56988202780485], [-8.123039156198502, 43.56945429928601], [-8.122948296368122, 43.56930635869503], [-8.122895825654268, 43.56901458464563], [-8.122820556163788, 43.56896974146366], [-8.122543953359127, 43.56902003288269], [-8.121647508814931, 43.56902816332877], [-8.12153753824532, 43.56898231431842], [-8.121177954599261, 43.56865198351443], [-8.120992882177234, 43.56838292442262], [-8.120586862787604, 43.56862273067236], [-8.120188470929861, 43.56907183304429], [-8.119679521769285, 43.569359332323074], [-8.119398476555943, 43.56961607001722], [-8.118897238746285, 43.569855876266956], [-8.11832626350224, 43.56998797506094], [-8.118176897987723, 43.56997179798782], [-8.117909180000424, 43.56979049742222], [-8.117842795327306, 43.56962881051004], [-8.118307488039136, 43.56912572868168], [-8.118506642058492, 43.56874845921993], [-8.119546752423048, 43.56777825392783], [-8.120608991011977, 43.56731113046408], [-8.121206453070045, 43.566933861002326], [-8.12308743596077, 43.566251154989004], [-8.123530084267259, 43.56601755134761], [-8.124614367261529, 43.56493963859975], [-8.124857861548662, 43.56481382623315], [-8.125477451831102, 43.5643467027694], [-8.12692609615624, 43.563136691227555], [-8.12694562599063, 43.56301490217447], [-8.126490572467446, 43.56296150945127], [-8.126446567475796, 43.56292580254376], [-8.126454027369618, 43.56280661188066], [-8.126906733959913, 43.561442540958524], [-8.127004047855735, 43.56098690070212], [-8.127175709232688, 43.56062974780798], [-8.12747335061431, 43.55958066880703], [-8.127636043354869, 43.55919325724244], [-8.127731177955866, 43.558702915906906], [-8.12756479717791, 43.55859504081309], [-8.126801121979952, 43.558413656428456], [-8.126739263534546, 43.55832573026419], [-8.127243518829346, 43.55713265016675], [-8.127520373091102, 43.556726379320025], [-8.127883896231651, 43.55634391307831], [-8.127717850729823, 43.55607175268233], [-8.127516265958548, 43.555528689175844], [-8.127281153574586, 43.55515209026635], [-8.127114940434694, 43.55508042499423], [-8.12658260576427, 43.55466895736754], [-8.125696806237102, 43.55421122163534], [-8.125304030254483, 43.5540924500674], [-8.124870853498578, 43.55405188165605], [-8.124495092779398, 43.55369841679931], [-8.124135760590434, 43.5534983407706], [-8.123762849718332, 43.553405134007335], [-8.123253146186471, 43.55342240072787], [-8.123088106513023, 43.55338535271585], [-8.121980521827936, 43.55287531390786], [-8.121484396979213, 43.55274321511388], [-8.117965003475547, 43.55313322506845], [-8.116997564211488, 43.55314739048481], [-8.116900669410825, 43.55311872437596], [-8.116878708824515, 43.553031301125884], [-8.117006532847881, 43.55278621427715], [-8.117260169237852, 43.55251992121339], [-8.117623273283243, 43.552372651174664], [-8.118555508553982, 43.55210912413895], [-8.118810150772333, 43.551974007859826], [-8.119342904537916, 43.551534628495574], [-8.119603414088488, 43.55102735571563], [-8.119941037148237, 43.55075561441481], [-8.120014043524861, 43.550190003588796], [-8.119963752105832, 43.549861181527376], [-8.12008193694055, 43.54968256317079], [-8.120375806465745, 43.549578208476305], [-8.120789369568229, 43.54930269531906], [-8.121393201872706, 43.54899784550071], [-8.122466336935759, 43.54866407811642], [-8.122673872858286, 43.54806158691645], [-8.122666077688336, 43.54785765521228], [-8.122443370521069, 43.547540651634336], [-8.121921513229609, 43.54711736552417], [-8.121685143560171, 43.54682986624539], [-8.121762089431286, 43.54668829590082], [-8.121915562078357, 43.54662174358964], [-8.122267434373498, 43.546279510483146], [-8.122712261974812, 43.54579981416464], [-8.122878558933735, 43.54554860852659], [-8.123764023184776, 43.54470404796302], [-8.12407691963017, 43.54429501108825], [-8.124869847670197, 43.54351415298879], [-8.125661434605718, 43.542632879689336], [-8.125694962218404, 43.54245577007532], [-8.125411653891206, 43.54210968129337], [-8.125121304765344, 43.541852021589875], [-8.125131027773023, 43.541699554771185], [-8.125794203951955, 43.54142664000392], [-8.127227928489447, 43.54105859063566], [-8.127979449927807, 43.54075223207474], [-8.128142897039652, 43.54073136113584], [-8.130472730845213, 43.53976157493889], [-8.13073449768126, 43.53974975645542], [-8.131394907832146, 43.540053432807326], [-8.131656255573034, 43.54011973366141], [-8.132134275510907, 43.53985721245408], [-8.132598968222737, 43.53945295326412], [-8.132780771702528, 43.538984740152955], [-8.13317907974124, 43.5386613663286], [-8.133444618433714, 43.538499595597386], [-8.133876202628016, 43.53833790868521], [-8.134075356647372, 43.53833790868521], [-8.134241318330169, 43.538257107138634], [-8.134340895339847, 43.538122326135635], [-8.134307703003287, 43.5376372653991], [-8.13417493365705, 43.53744858875871], [-8.133909394964576, 43.53728690184653], [-8.133046310395002, 43.53628979064524], [-8.13264800235629, 43.5357238445431], [-8.132548425346613, 43.53540047071874], [-8.132581617683172, 43.53521179407835], [-8.132880348712206, 43.5346997436136], [-8.133544195443392, 43.53402600623667], [-8.13371024094522, 43.533702632412314], [-8.132880348712206, 43.53351395577192], [-8.132581617683172, 43.53329837322235], [-8.131718533113599, 43.53305580094457], [-8.131519379094243, 43.53273242712021], [-8.131552571430802, 43.53262463584542], [-8.131784917786717, 43.53254383429885], [-8.132482040673494, 43.532489938661456], [-8.13271438702941, 43.532328167930245], [-8.132946733385324, 43.53208567947149], [-8.133411426097155, 43.53184310719371], [-8.13367704860866, 43.53181620128453], [-8.133876202628016, 43.53173531591892], [-8.134008971974254, 43.531600534915924], [-8.134772395715117, 43.53116936981678], [-8.134905165061355, 43.530994188040495], [-8.135403133928776, 43.53067081421614], [-8.13616655766964, 43.530455231666565], [-8.136531673371792, 43.53023964911699], [-8.136764103546739, 43.5301857534796], [-8.136996449902654, 43.53023964911699], [-8.137295180931687, 43.53056302294135], [-8.138091880828142, 43.530994188040495], [-8.138390611857176, 43.53120977059007], [-8.13868934288621, 43.53131756186485], [-8.139353189617395, 43.531694915145636], [-8.14014988951385, 43.532233871519566], [-8.140382235869765, 43.53244945406914], [-8.140747351571918, 43.532584235072136], [-8.141046166419983, 43.532772827893496], [-8.141743205487728, 43.53301540017128], [-8.141909167170525, 43.533257972449064], [-8.14214151352644, 43.533446565270424], [-8.142307475209236, 43.53390472009778], [-8.142506713047624, 43.53420118801296], [-8.142772251740098, 43.53441677056253], [-8.142871828749776, 43.53457845747471], [-8.143004598096013, 43.53498271666467], [-8.143037790432572, 43.53527918457985], [-8.143004598096013, 43.536087619140744], [-8.143336521461606, 43.536815252155066], [-8.143535675480962, 43.53708481416106], [-8.143867598846555, 43.537327302619815], [-8.144033644348383, 43.537515979260206], [-8.144316533580422, 43.53759342804551], [-8.145976234227419, 43.53737784549594], [-8.14730929210782, 43.537137284874916], [-8.14743678085506, 43.536973586305976], [-8.14751842059195, 43.53696118108928], [-8.14768111333251, 43.53664048947394], [-8.14772754907608, 43.53635122999549], [-8.147588158026338, 43.536187782883644], [-8.147138049826026, 43.5359225794673], [-8.14586098305881, 43.53591109625995], [-8.145535681396723, 43.535986533388495], [-8.144784327596426, 43.53596767410636], [-8.14469120465219, 43.53589215315878], [-8.14443103247521, 43.53489153960465], [-8.145074991459165, 43.53398931761287], [-8.144053583165162, 43.53339135548473], [-8.144417841729434, 43.53141183664486], [-8.14473323998331, 43.53153283958375], [-8.145386175143955, 43.53231441478201], [-8.14565953016978, 43.53252361672355], [-8.146251730176544, 43.53236950970248], [-8.146874248823025, 43.531312583736025], [-8.147815697615727, 43.53029973274354], [-8.149227849596457, 43.528956567783666], [-8.149931921340254, 43.528163042699646], [-8.150383343866594, 43.527912889698484], [-8.150833004327922, 43.5274188022114], [-8.151032055216916, 43.52620686200038], [-8.151470587937865, 43.52529684577908], [-8.152862783055411, 43.52306924061662], [-8.152865304538608, 43.522460318669715], [-8.153370751098379, 43.521603767675174], [-8.15327737554685, 43.52148423126232], [-8.15267848053847, 43.52116153958383], [-8.152391779798473, 43.51853249297141], [-8.15210195003996, 43.51746645443439], [-8.152095380274908, 43.51676303815237], [-8.151715972429306, 43.51669629984377], [-8.15167297229895, 43.5164667869185], [-8.152490984648466, 43.515657065436244], [-8.15490547567606, 43.51480085402727]]}}]}